STARLINK-31942          
1 59899U 24100Q   26167.06339844 -.00000305  00000+0 -15748-5 0  9995
2 59899  43.0022 289.6807 0000832 252.1920 107.8841 15.27573610116191
STARLINK-31676          
1 59900U 24100R   26164.66208775 -.00000275  00000+0 -43097-6 0  9994
2 59900  43.0134 303.4886 0002272 280.7273  79.3323 15.27574612115727
STARLINK-31908          
1 59901U 24100S   26165.62712414  .00003288  00000+0  12891-3 0  9992
2 59901  42.9987 290.9010 0001127 254.7589 105.3138 15.27586283116058
STARLINK-31914          
1 59902U 24100T   26167.02756443  .00005309  00000+0  20246-3 0  9998
2 59902  43.0039 290.2723 0001096 271.8314  88.2412 15.27557708116081
STARLINK-31850          
1 59903U 24100U   26167.05439869  .00000332  00000+0  21582-4 0  9998
2 59903  43.0103 289.6021 0001191 268.5864  91.4851 15.27577609116148
STARLINK-31924          
1 59904U 24100V   26167.06724730  .00000136  00000+0  14480-4 0  9995
2 59904  43.0086 289.7089 0001805 271.0684  88.9961 15.27577125116196
STARLINK-31898          
1 59905U 24100W   26165.63822501  .00001173  00000+0  52141-4 0  9990
2 59905  42.9995 294.4485 0000381 217.3985 142.6840 15.27575284116011
STARLINK-31861          
1 59906U 24100X   26166.60280184 -.00000199  00000+0  23111-5 0  9998
2 59906  43.0054 285.2933 0002499 270.2050  89.8516 15.27570462116205
STARLINK-31920          
1 59907U 24100Y   26167.16668980  .00237291  00000+0  31721-2 0  9992
2 59907  42.9908 241.7314 0022007  31.5247 197.2023 15.56211877  5865
STARLINK-31872          
1 59922U 24106A   26167.19278883 -.00005162  00000+0 -17845-3 0  9991
2 59922  43.0050 136.5644 0000873 216.6201 143.4591 15.27536340115624
STARLINK-31972          
1 59923U 24106B   26166.65166500  .00000240  00000+0  18261-4 0  9998
2 59923  43.0061 139.3874 0001570 269.8025  90.2647 15.27576889115557
STARLINK-31958          
1 59924U 24106C   26167.18168634  .00000155  00000+0  15162-4 0  9990
2 59924  43.0030 121.7817 0000843 275.5748  84.5007 15.27576895115759
STARLINK-31959          
1 59925U 24106D   26167.20977597  .00000116  00000+0  13748-4 0  9995
2 59925  43.0027 132.2963 0001471 274.8833  85.1850 15.27575445115630
STARLINK-31957          
1 59926U 24106E   26167.20416576  .00000149  00000+0  14941-4 0  9993
2 59926  42.9980 135.7932 0001048 259.9990 100.0743 15.27575895115647
STARLINK-31968          
1 59927U 24106F   26167.21187593 -.00000185  00000+0  27770-5 0  9995
2 59927  42.9998 135.8514 0000970 268.0872  91.9869 15.27573640115640
STARLINK-31970          
1 59928U 24106G   26165.66701516 -.00000566  00000+0 -11032-4 0  9997
2 59928  43.0064 144.8976 0001715 273.0466  87.0189 15.27572554115400
STARLINK-31932          
1 59929U 24106H   26167.19449975  .00152813  00000+0  54296-2 0  9994
2 59929  42.9940 133.0092 0002052 241.9393 118.1251 15.27694211115624
STARLINK-31956          
1 59930U 24106J   26167.16447913  .00000593  00000+0  31084-4 0  9992
2 59930  43.0030 136.3606 0001089 274.7822  85.2905 15.27574882115581
STARLINK-31960          
1 59931U 24106K   26167.21444910  .00000168  00000+0  15625-4 0  9994
2 59931  43.0051 135.8644 0000814 300.9621  59.1151 15.27576745115599
STARLINK-31432          
1 59932U 24106L   26167.17604241  .00022356  00000+0  81886-3 0  9999
2 59932  43.0008 136.4414 0002032 270.6341  89.4278 15.27602975115579
STARLINK-31853          
1 59933U 24106M   26166.64524275 -.00000159  00000+0  37277-5 0  9994
2 59933  43.0001 139.3401 0000921 273.5857  86.4889 15.27574508115508
STARLINK-31971          
1 59934U 24106N   26167.19833267  .00001248  00000+0  54861-4 0  9996
2 59934  43.0030 132.9990 0000759 244.8823 115.1950 15.27586873115503
STARLINK-31962          
1 59936U 24106Q   26167.19019213 -.00001111  00000+0 -30875-4 0  9995
2 59936  42.9955 136.5394 0001139 255.7363 104.3362 15.27563382115585
STARLINK-31879          
1 59937U 24106R   26167.20045419  .00000608  00000+0  31630-4 0  9993
2 59937  43.0040 136.6167 0000993 270.6821  89.3917 15.27579531115631
STARLINK-31876          
1 59938U 24106S   26165.65674048  .00002729  00000+0  10868-3 0  9992
2 59938  42.9976 144.8189 0001100  76.8012 283.2962 15.27570772115365
STARLINK-31955          
1 59939U 24106T   26167.20545631 -.00000674  00000+0 -14960-4 0  9998
2 59939  43.0009 135.7946 0001233 272.5712  87.4999 15.27575473115631
STARLINK-31946          
1 59940U 24106U   26167.19660250  .00001903  00000+0  78648-4 0  9990
2 59940  43.0014 136.5906 0001434 274.5282  85.5406 15.27587558106214
STARLINK-31948          
1 59941U 24106V   26167.19064296  .00000096  00000+0  13021-4 0  9995
2 59941  43.0019 132.9828 0001029 267.5019  92.5715 15.27576234115628
STARLINK-31900          
1 59942U 24106W   26167.20802142  .00000303  00000+0  20553-4 0  9997
2 59942  43.0025 135.8215 0001062 274.3053  85.7677 15.27572646115599
STARLINK-31973          
1 59943U 24106X   26167.18246547  .00000459  00000+0  26192-4 0  9993
2 59943  43.0015 136.4890 0001608 264.2456  95.8212 15.27578320115587
