OBJECT_NAME,OBJECT_ID,EPOCH,MEAN_MOTION,ECCENTRICITY,INCLINATION,RA_OF_ASC_NODE,ARG_OF_PERICENTER,MEAN_ANOMALY,EPHEMERIS_TYPE,CLASSIFICATION_TYPE,NORAD_CAT_ID,ELEMENT_SET_NO,REV_AT_EPOCH,BSTAR,MEAN_MOTION_DOT,MEAN_MOTION_DDOT
STARLINK-31942,2024-100Q,2026-06-16T01:31:17.625216,15.27573610,.0000832,43.0022,289.6807,252.1920,107.8841,0,U,59899,999,11619,-.15748E-5,-.305E-5,0
STARLINK-31676,2024-100R,2026-06-13T15:53:24.381600,15.27574612,.00022725,43.0134,303.4886,280.7273,79.3323,0,U,59900,999,11572,-.430974E-6,-.275E-5,0
STARLINK-31908,2024-100S,2026-06-14T15:03:03.525696,15.27586283,.0001127,42.9987,290.9010,254.7589,105.3138,0,U,59901,999,11605,.12891E-3,.3288E-4,0
STARLINK-31914,2024-100T,2026-06-16T00:39:41.566752,15.27557708,.0001096,43.0039,290.2723,271.8314,88.2412,0,U,59902,999,11608,.20246E-3,.5309E-4,0
STARLINK-31850,2024-100U,2026-06-16T01:18:20.046816,15.27577609,.0001191,43.0103,289.6021,268.5864,91.4851,0,U,59903,999,11614,.21582E-4,.332E-5,0
STARLINK-31924,2024-100V,2026-06-16T01:36:50.166720,15.27577125,.0001805,43.0086,289.7089,271.0684,88.9961,0,U,59904,999,11619,.1448E-4,.136E-5,0
STARLINK-31898,2024-100W,2026-06-14T15:19:02.640864,15.27575284,.0000381,42.9995,294.4485,217.3985,142.6840,0,U,59905,999,11601,.52141E-4,.1173E-4,0
STARLINK-31861,2024-100X,2026-06-15T14:28:02.078976,15.27570462,.0002499,43.0054,285.2933,270.2050,89.8516,0,U,59906,999,11620,.2311098E-5,-.199E-5,0
STARLINK-31920,2024-100Y,2026-06-16T04:00:01.998720,15.56211877,.0022007,42.9908,241.7314,31.5247,197.2023,0,U,59907,999,586,.31721E-2,.237291E-2,0
STARLINK-31872,2024-106A,2026-06-16T04:37:36.954912,15.27536340,.0000873,43.0050,136.5644,216.6201,143.4591,0,U,59922,999,11562,-.17845E-3,-.5162E-4,0
STARLINK-31972,2024-106B,2026-06-15T15:38:23.856000,15.27576889,.00015706,43.0061,139.3874,269.8025,90.2647,0,U,59923,999,11555,.18261467E-4,.24E-5,0
STARLINK-31958,2024-106C,2026-06-16T04:21:37.699776,15.27576895,.0000843,43.0030,121.7817,275.5748,84.5007,0,U,59924,999,11575,.15162E-4,.155E-5,0
STARLINK-31959,2024-106D,2026-06-16T05:02:04.643808,15.27575445,.0001471,43.0027,132.2963,274.8833,85.1850,0,U,59925,999,11563,.13748E-4,.116E-5,0
STARLINK-31957,2024-106E,2026-06-16T04:53:59.921664,15.27575895,.0001048,42.9980,135.7932,259.9990,100.0743,0,U,59926,999,11564,.14941E-4,.149E-5,0
STARLINK-31968,2024-106F,2026-06-16T05:05:06.080352,15.27573640,.000097,42.9998,135.8514,268.0872,91.9869,0,U,59927,999,11564,.2777E-5,-.185E-5,0
STARLINK-31970,2024-106G,2026-06-14T16:00:30.109824,15.27572554,.00017153,43.0064,144.8976,273.0466,87.0189,0,U,59928,999,11540,-.11031943E-4,-.566E-5,0
STARLINK-31932,2024-106H,2026-06-16T04:40:04.778400,15.27694211,.0002052,42.9940,133.0092,241.9393,118.1251,0,U,59929,999,11562,.54296E-2,.152813E-2,0
STARLINK-31956,2024-106J,2026-06-16T03:56:50.996832,15.27574882,.0001089,43.0030,136.3606,274.7822,85.2905,0,U,59930,999,11558,.31084E-4,.593E-5,0
STARLINK-31960,2024-106K,2026-06-16T05:08:48.402240,15.27576745,.0000814,43.0051,135.8644,300.9621,59.1151,0,U,59931,999,11559,.15625E-4,.168E-5,0
STARLINK-31432,2024-106L,2026-06-16T04:13:30.064224,15.27602975,.0002032,43.0008,136.4414,270.6341,89.4278,0,U,59932,999,11557,.81886E-3,.22356E-3,0
STARLINK-31853,2024-106M,2026-06-15T15:29:08.973600,15.27574508,.00009214,43.0001,139.3401,273.5857,86.4889,0,U,59933,999,11550,.3727672E-5,-.159E-5,0
STARLINK-31971,2024-106N,2026-06-16T04:45:35.942688,15.27586873,.0000759,43.0030,132.9990,244.8823,115.1950,0,U,59934,999,11550,.54861E-4,.1248E-4,0
STARLINK-31962,2024-106Q,2026-06-16T04:33:52.600032,15.27563382,.0001139,42.9955,136.5394,255.7363,104.3362,0,U,59936,999,11558,-.30875E-4,-.1111E-4,0
STARLINK-31879,2024-106R,2026-06-16T04:48:39.242016,15.27579531,.0000993,43.0040,136.6167,270.6821,89.3917,0,U,59937,999,11563,.3163E-4,.608E-5,0
STARLINK-31876,2024-106S,2026-06-14T15:45:42.377472,15.27570772,.00011005,42.9976,144.8189,76.8012,283.2962,0,U,59938,999,11536,.10867901E-3,.2729E-4,0
STARLINK-31955,2024-106T,2026-06-16T04:55:51.425184,15.27575473,.0001233,43.0009,135.7946,272.5712,87.4999,0,U,59939,999,11563,-.1496E-4,-.674E-5,0
STARLINK-31946,2024-106U,2026-06-16T04:43:06.456000,15.27587558,.0001434,43.0014,136.5906,274.5282,85.5406,0,U,59940,999,10621,.78648E-4,.1903E-4,0
STARLINK-31948,2024-106V,2026-06-16T04:34:31.551744,15.27576234,.0001029,43.0019,132.9828,267.5019,92.5715,0,U,59941,999,11562,.13021E-4,.96E-6,0
STARLINK-31900,2024-106W,2026-06-16T04:59:33.050688,15.27572646,.0001062,43.0025,135.8215,274.3053,85.7677,0,U,59942,999,11559,.20553E-4,.303E-5,0
STARLINK-31973,2024-106X,2026-06-16T04:22:45.016608,15.27578320,.0001608,43.0015,136.4890,264.2456,95.8212,0,U,59943,999,11558,.26192E-4,.459E-5,0
